SL-3 R/B                
1 13403U 82079B   26066.96067103  .00010808  00000+0  43113-3 0  9990
2 13403  81.1482 195.1181 0025021 170.4822 189.6891 15.24769530377435
SL-14 R/B               
1 13553U 82092B   26066.70196093  .00000676  00000+0  73203-4 0  9990
2 13553  82.5698 143.2586 0019107 310.6118 165.6645 14.86664340328631
SL-3 R/B                
1 13819U 83010B   26066.75496546  .00023240  00000+0  46783-3 0  9991
2 13819  81.1066   4.6189 0018140  57.4686 302.8308 15.46270743357642
SL-3 R/B                
1 14208U 83075B   26066.99593418  .00016229  00000+0  42805-3 0  9997
2 14208  97.6144  71.5088 0019986 232.3669 127.5762 15.38369111329890
COSMOS 1536             
1 14699U 84013A   26066.55290681  .00008117  00000+0  33522-3 0  9995
2 14699  82.5426 109.9744 0012618 292.0444  67.9453 15.23791013272293
SL-14 R/B               
1 14820U 84027B   26066.60568561  .00000700  00000+0  77221-4 0  9992
2 14820  82.5384 246.9678 0017530 345.0027  15.0667 14.85974122247322
SL-8 R/B                
1 15483U 85006B   26067.00581309  .00000291  00000+0  10516-3 0  9994
2 15483  74.0432 264.2473 0018510 182.4592 330.5275 14.37781127153787
SL-12 R/B(2)            
1 15772U 85042D   26066.52283894  .00000058  00000+0  47680-4 0  9993
2 15772  71.1062  92.3071 0033342 131.7156 337.4150 14.21981894114086
SL-14 R/B               
1 15945U 85069B   26066.59110062  .00000792  00000+0  86700-4 0  9998
2 15945  82.5282  26.9059 0018282 194.7885 165.2799 14.86430494172526
SL-16 R/B               
1 16182U 85097B   26066.66621284 -.00000165  00000+0 -58457-4 0  9998
2 16182  71.0032 144.8143 0009942 262.1897 209.0189 14.16599316 86948
SL-14 R/B               
1 16496U 86006B   26066.97250455  .00000893  00000+0  92577-4 0  9996
2 16496  82.5234 261.3539 0075078 278.6145  80.6571 14.86812670148958
COSMOS 1743             
1 16719U 86034A   26066.52319524  .00049929  00000+0  65402-3 0  9998
2 16719  82.5293  76.1042 0001776 312.9052  47.2054 15.58380737179914
