CCSDS_OMM_VERS = 2.0
CREATION_DATE  = 
ORIGINATOR     = 

OBJECT_NAME    = SL-3 R/B
OBJECT_ID      = 1982-079B
CENTER_NAME    = EARTH
REF_FRAME      = TEME
TIME_SYSTEM    = UTC
MEAN_ELEMENT_THEORY = SGP/SGP4

EPOCH          = 2026-03-07T23:03:21.976992
MEAN_MOTION    = 15.24769530
ECCENTRICITY   = .0025021
INCLINATION    = 81.1482
RA_OF_ASC_NODE = 195.1181
ARG_OF_PERICENTER = 170.4822
MEAN_ANOMALY   = 189.6891

EPHEMERIS_TYPE = 0
CLASSIFICATION_TYPE = U
NORAD_CAT_ID   = 13403
ELEMENT_SET_NO = 999
REV_AT_EPOCH   = 37743
BSTAR          = .43113E-3
MEAN_MOTION_DOT = .10808E-3
MEAN_MOTION_DDOT = 0

CCSDS_OMM_VERS = 2.0
CREATION_DATE  = 
ORIGINATOR     = 

OBJECT_NAME    = SL-14 R/B
OBJECT_ID      = 1982-092B
CENTER_NAME    = EARTH
REF_FRAME      = TEME
TIME_SYSTEM    = UTC
MEAN_ELEMENT_THEORY = SGP/SGP4

EPOCH          = 2026-03-07T16:50:49.424352
MEAN_MOTION    = 14.86664340
ECCENTRICITY   = .00191071
INCLINATION    = 82.5698
RA_OF_ASC_NODE = 143.2586
ARG_OF_PERICENTER = 310.6118
MEAN_ANOMALY   = 165.6645

EPHEMERIS_TYPE = 0
CLASSIFICATION_TYPE = U
NORAD_CAT_ID   = 13553
ELEMENT_SET_NO = 999
REV_AT_EPOCH   = 32863
BSTAR          = .73203114E-4
MEAN_MOTION_DOT = .676E-5
MEAN_MOTION_DDOT = 0

CCSDS_OMM_VERS = 2.0
CREATION_DATE  = 
ORIGINATOR     = 

OBJECT_NAME    = SL-3 R/B
OBJECT_ID      = 1983-010B
CENTER_NAME    = EARTH
REF_FRAME      = TEME
TIME_SYSTEM    = UTC
MEAN_ELEMENT_THEORY = SGP/SGP4

EPOCH          = 2026-03-07T18:07:09.015744
MEAN_MOTION    = 15.46270743
ECCENTRICITY   = .00181398
INCLINATION    = 81.1066
RA_OF_ASC_NODE = 4.6189
ARG_OF_PERICENTER = 57.4686
MEAN_ANOMALY   = 302.8308

EPHEMERIS_TYPE = 0
CLASSIFICATION_TYPE = U
NORAD_CAT_ID   = 13819
ELEMENT_SET_NO = 999
REV_AT_EPOCH   = 35764
BSTAR          = .46783037E-3
MEAN_MOTION_DOT = .2324E-3
MEAN_MOTION_DDOT = 0

CCSDS_OMM_VERS = 2.0
CREATION_DATE  = 
ORIGINATOR     = 

OBJECT_NAME    = SL-3 R/B
OBJECT_ID      = 1983-075B
CENTER_NAME    = EARTH
REF_FRAME      = TEME
TIME_SYSTEM    = UTC
MEAN_ELEMENT_THEORY = SGP/SGP4

EPOCH          = 2026-03-07T23:54:08.714016
MEAN_MOTION    = 15.38369111
ECCENTRICITY   = .00199859
INCLINATION    = 97.6144
RA_OF_ASC_NODE = 71.5088
ARG_OF_PERICENTER = 232.3669
MEAN_ANOMALY   = 127.5762

EPHEMERIS_TYPE = 0
CLASSIFICATION_TYPE = U
NORAD_CAT_ID   = 14208
ELEMENT_SET_NO = 999
REV_AT_EPOCH   = 32989
BSTAR          = .42805163E-3
MEAN_MOTION_DOT = .16229E-3
MEAN_MOTION_DDOT = 0

CCSDS_OMM_VERS = 2.0
CREATION_DATE  = 
ORIGINATOR     = 

OBJECT_NAME    = COSMOS 1536
OBJECT_ID      = 1984-013A
CENTER_NAME    = EARTH
REF_FRAME      = TEME
TIME_SYSTEM    = UTC
MEAN_ELEMENT_THEORY = SGP/SGP4

EPOCH          = 2026-03-07T13:16:11.148384
MEAN_MOTION    = 15.23791013
ECCENTRICITY   = .0012618
INCLINATION    = 82.5426
RA_OF_ASC_NODE = 109.9744
ARG_OF_PERICENTER = 292.0444
MEAN_ANOMALY   = 67.9453

EPHEMERIS_TYPE = 0
CLASSIFICATION_TYPE = U
NORAD_CAT_ID   = 14699
ELEMENT_SET_NO = 999
REV_AT_EPOCH   = 27229
BSTAR          = .33522E-3
MEAN_MOTION_DOT = .8117E-4
MEAN_MOTION_DDOT = 0

CCSDS_OMM_VERS = 2.0
CREATION_DATE  = 
ORIGINATOR     = 

OBJECT_NAME    = SL-14 R/B
OBJECT_ID      = 1984-027B
CENTER_NAME    = EARTH
REF_FRAME      = TEME
TIME_SYSTEM    = UTC
MEAN_ELEMENT_THEORY = SGP/SGP4

EPOCH          = 2026-03-07T14:32:11.236704
MEAN_MOTION    = 14.85974122
ECCENTRICITY   = .001753
INCLINATION    = 82.5384
RA_OF_ASC_NODE = 246.9678
ARG_OF_PERICENTER = 345.0027
MEAN_ANOMALY   = 15.0667

EPHEMERIS_TYPE = 0
CLASSIFICATION_TYPE = U
NORAD_CAT_ID   = 14820
ELEMENT_SET_NO = 999
REV_AT_EPOCH   = 24732
BSTAR          = .77221E-4
MEAN_MOTION_DOT = .7E-5
MEAN_MOTION_DDOT = 0

CCSDS_OMM_VERS = 2.0
CREATION_DATE  = 
ORIGINATOR     = 

OBJECT_NAME    = SL-8 R/B
OBJECT_ID      = 1985-006B
CENTER_NAME    = EARTH
REF_FRAME      = TEME
TIME_SYSTEM    = UTC
MEAN_ELEMENT_THEORY = SGP/SGP4

EPOCH          = 2026-03-08T00:08:22.250976
MEAN_MOTION    = 14.37781127
ECCENTRICITY   = .001851
INCLINATION    = 74.0432
RA_OF_ASC_NODE = 264.2473
ARG_OF_PERICENTER = 182.4592
MEAN_ANOMALY   = 330.5275

EPHEMERIS_TYPE = 0
CLASSIFICATION_TYPE = U
NORAD_CAT_ID   = 15483
ELEMENT_SET_NO = 999
REV_AT_EPOCH   = 15378
BSTAR          = .10516E-3
MEAN_MOTION_DOT = .291E-5
MEAN_MOTION_DDOT = 0

CCSDS_OMM_VERS = 2.0
CREATION_DATE  = 
ORIGINATOR     = 

OBJECT_NAME    = SL-12 R/B(2)
OBJECT_ID      = 1985-042D
CENTER_NAME    = EARTH
REF_FRAME      = TEME
TIME_SYSTEM    = UTC
MEAN_ELEMENT_THEORY = SGP/SGP4

EPOCH          = 2026-03-07T12:32:53.284416
MEAN_MOTION    = 14.21981894
ECCENTRICITY   = .00333424
INCLINATION    = 71.1062
RA_OF_ASC_NODE = 92.3071
ARG_OF_PERICENTER = 131.7156
MEAN_ANOMALY   = 337.4150

EPHEMERIS_TYPE = 0
CLASSIFICATION_TYPE = U
NORAD_CAT_ID   = 15772
ELEMENT_SET_NO = 999
REV_AT_EPOCH   = 11408
BSTAR          = .47679519E-4
MEAN_MOTION_DOT = .58E-6
MEAN_MOTION_DDOT = 0

CCSDS_OMM_VERS = 2.0
CREATION_DATE  = 
ORIGINATOR     = 

OBJECT_NAME    = SL-14 R/B
OBJECT_ID      = 1985-069B
CENTER_NAME    = EARTH
REF_FRAME      = TEME
TIME_SYSTEM    = UTC
MEAN_ELEMENT_THEORY = SGP/SGP4

EPOCH          = 2026-03-07T14:11:11.093568
MEAN_MOTION    = 14.86430494
ECCENTRICITY   = .0018282
INCLINATION    = 82.5282
RA_OF_ASC_NODE = 26.9059
ARG_OF_PERICENTER = 194.7885
MEAN_ANOMALY   = 165.2799

EPHEMERIS_TYPE = 0
CLASSIFICATION_TYPE = U
NORAD_CAT_ID   = 15945
ELEMENT_SET_NO = 999
REV_AT_EPOCH   = 17252
BSTAR          = .867E-4
MEAN_MOTION_DOT = .792E-5
MEAN_MOTION_DDOT = 0

CCSDS_OMM_VERS = 2.0
CREATION_DATE  = 
ORIGINATOR     = 

OBJECT_NAME    = SL-16 R/B
OBJECT_ID      = 1985-097B
CENTER_NAME    = EARTH
REF_FRAME      = TEME
TIME_SYSTEM    = UTC
MEAN_ELEMENT_THEORY = SGP/SGP4

EPOCH          = 2026-03-07T15:59:20.789376
MEAN_MOTION    = 14.16599316
ECCENTRICITY   = .0009942
INCLINATION    = 71.0032
RA_OF_ASC_NODE = 144.8143
ARG_OF_PERICENTER = 262.1897
MEAN_ANOMALY   = 209.0189

EPHEMERIS_TYPE = 0
CLASSIFICATION_TYPE = U
NORAD_CAT_ID   = 16182
ELEMENT_SET_NO = 999
REV_AT_EPOCH   = 8694
BSTAR          = -.58457E-4
MEAN_MOTION_DOT = -.165E-5
MEAN_MOTION_DDOT = 0

CCSDS_OMM_VERS = 2.0
CREATION_DATE  = 
ORIGINATOR     = 

OBJECT_NAME    = SL-14 R/B
OBJECT_ID      = 1986-006B
CENTER_NAME    = EARTH
REF_FRAME      = TEME
TIME_SYSTEM    = UTC
MEAN_ELEMENT_THEORY = SGP/SGP4

EPOCH          = 2026-03-07T23:20:24.393984
MEAN_MOTION    = 14.86812670
ECCENTRICITY   = .00750778
INCLINATION    = 82.5234
RA_OF_ASC_NODE = 261.3539
ARG_OF_PERICENTER = 278.6145
MEAN_ANOMALY   = 80.6571

EPHEMERIS_TYPE = 0
CLASSIFICATION_TYPE = U
NORAD_CAT_ID   = 16496
ELEMENT_SET_NO = 999
REV_AT_EPOCH   = 14895
BSTAR          = .92577343E-4
MEAN_MOTION_DOT = .893E-5
MEAN_MOTION_DDOT = 0

CCSDS_OMM_VERS = 2.0
CREATION_DATE  = 
ORIGINATOR     = 

OBJECT_NAME    = COSMOS 1743
OBJECT_ID      = 1986-034A
CENTER_NAME    = EARTH
REF_FRAME      = TEME
TIME_SYSTEM    = UTC
MEAN_ELEMENT_THEORY = SGP/SGP4

EPOCH          = 2026-03-07T12:33:24.068736
MEAN_MOTION    = 15.58380737
ECCENTRICITY   = .00017767
INCLINATION    = 82.5293
RA_OF_ASC_NODE = 76.1042
ARG_OF_PERICENTER = 312.9052
MEAN_ANOMALY   = 47.2054

EPHEMERIS_TYPE = 0
CLASSIFICATION_TYPE = U
NORAD_CAT_ID   = 16719
ELEMENT_SET_NO = 999
REV_AT_EPOCH   = 17991
BSTAR          = .65401851E-3
MEAN_MOTION_DOT = .49929E-3
MEAN_MOTION_DDOT = 0

